CZ-2D R/B               
1 28738U 05024B   25336.60451280  .00029524  00000+0  48331-3 0  9997
2 28738  97.3632 343.7924 0007011  38.3909 321.7841 15.52431842124685
ALOS (DAICHI)           
1 28931U 06002A   25336.89005181  .00002006  00000+0  34712-3 0  9999
2 28931  98.1076 288.4479 0000729 102.7639 257.3648 14.69437060 59261
H-2A R/B                
1 28932U 06002B   25336.60998979  .00013639  00000+0  72260-3 0  9999
2 28932  98.2306 110.5337 0054545 210.8699 148.9321 15.14235927 79735
RESURS-DK 1             
1 29228U 06021A   25336.84152891  .00004317  00000+0  25634-3 0  9996
2 29228  69.9327 127.4146 0007822 265.8783  94.1489 15.12068181 72887
CZ-4B R/B               
1 29507U 06046C   25336.66895667  .00007099  00000+0  37126-3 0  9997
2 29507  97.5752  16.8353 0032757 242.5228 117.2673 15.15706983 45343
CZ-2C R/B               
1 31114U 07010B   25336.85531714  .00000225  00000+0  12256-3 0  9998
2 31114  98.3973  90.0037 0058450 214.8933 144.8407 14.20202886965979
COSMO-SKYMED 1          
1 31598U 07023A   25336.82018655  .00004921  00000+0  44788-3 0  9991
2 31598  97.8844 162.1550 0001473  82.4949 277.6439 14.95649302   426
COSMOS 2428             
1 31792U 07029A   25336.61426485 -.00000002  00000+0  24830-4 0  9998
2 31792  70.9373  47.1389 0003103  39.0924 321.0421 14.12886807950382
SL-16 R/B               
1 31793U 07029B   25336.86645977 -.00000170  00000+0 -63090-4 0  9993
2 31793  70.9769  15.9126 0002439 265.9330 266.8087 14.14816356951677
KORONAS-FOTON           
1 33504U 09003A   25336.55971909  .00014064  00000+0  34093-3 0  9997
2 33504  82.4326  16.6521 0012612 141.1782 219.0372 15.40845941930770
CZ-2C R/B               
1 37731U 11030B   25336.86236950  .00002513  00000+0  32513-3 0  9991
2 37731  97.8394 291.1888 0051782 306.6349 106.7839 14.80845712775760
H-2A R/B                
1 38341U 12025E   25336.86393399  .00004507  00000+0  41761-3 0  9995
2 38341  98.4577 291.3341 0043940 269.7562  89.8621 14.94338948733753
