CCSDS_OMM_VERS = 2.0
CREATION_DATE  = 
ORIGINATOR     = 

OBJECT_NAME    = CZ-2D R/B
OBJECT_ID      = 2005-024B
CENTER_NAME    = EARTH
REF_FRAME      = TEME
TIME_SYSTEM    = UTC
MEAN_ELEMENT_THEORY = SGP/SGP4

EPOCH          = 2025-12-02T14:30:29.905920
MEAN_MOTION    = 15.52431842
ECCENTRICITY   = .0007011
INCLINATION    = 97.3632
RA_OF_ASC_NODE = 343.7924
ARG_OF_PERICENTER = 38.3909
MEAN_ANOMALY   = 321.7841

EPHEMERIS_TYPE = 0
CLASSIFICATION_TYPE = U
NORAD_CAT_ID   = 28738
ELEMENT_SET_NO = 999
REV_AT_EPOCH   = 12468
BSTAR          = .48331E-3
MEAN_MOTION_DOT = .29524E-3
MEAN_MOTION_DDOT = 0

CCSDS_OMM_VERS = 2.0
CREATION_DATE  = 
ORIGINATOR     = 

OBJECT_NAME    = ALOS (DAICHI)
OBJECT_ID      = 2006-002A
CENTER_NAME    = EARTH
REF_FRAME      = TEME
TIME_SYSTEM    = UTC
MEAN_ELEMENT_THEORY = SGP/SGP4

EPOCH          = 2025-12-02T21:21:40.476384
MEAN_MOTION    = 14.69437060
ECCENTRICITY   = .0000729
INCLINATION    = 98.1076
RA_OF_ASC_NODE = 288.4479
ARG_OF_PERICENTER = 102.7639
MEAN_ANOMALY   = 257.3648

EPHEMERIS_TYPE = 0
CLASSIFICATION_TYPE = U
NORAD_CAT_ID   = 28931
ELEMENT_SET_NO = 999
REV_AT_EPOCH   = 5926
BSTAR          = .34712E-3
MEAN_MOTION_DOT = .2006E-4
MEAN_MOTION_DDOT = 0

CCSDS_OMM_VERS = 2.0
CREATION_DATE  = 
ORIGINATOR     = 

OBJECT_NAME    = H-2A R/B
OBJECT_ID      = 2006-002B
CENTER_NAME    = EARTH
REF_FRAME      = TEME
TIME_SYSTEM    = UTC
MEAN_ELEMENT_THEORY = SGP/SGP4

EPOCH          = 2025-12-02T14:38:23.117856
MEAN_MOTION    = 15.14235927
ECCENTRICITY   = .0054545
INCLINATION    = 98.2306
RA_OF_ASC_NODE = 110.5337
ARG_OF_PERICENTER = 210.8699
MEAN_ANOMALY   = 148.9321

EPHEMERIS_TYPE = 0
CLASSIFICATION_TYPE = U
NORAD_CAT_ID   = 28932
ELEMENT_SET_NO = 999
REV_AT_EPOCH   = 7973
BSTAR          = .7226E-3
MEAN_MOTION_DOT = .13639E-3
MEAN_MOTION_DDOT = 0

CCSDS_OMM_VERS = 2.0
CREATION_DATE  = 
ORIGINATOR     = 

OBJECT_NAME    = RESURS-DK 1
OBJECT_ID      = 2006-021A
CENTER_NAME    = EARTH
REF_FRAME      = TEME
TIME_SYSTEM    = UTC
MEAN_ELEMENT_THEORY = SGP/SGP4

EPOCH          = 2025-12-02T20:11:48.097824
MEAN_MOTION    = 15.12068181
ECCENTRICITY   = .0007822
INCLINATION    = 69.9327
RA_OF_ASC_NODE = 127.4146
ARG_OF_PERICENTER = 265.8783
MEAN_ANOMALY   = 94.1489

EPHEMERIS_TYPE = 0
CLASSIFICATION_TYPE = U
NORAD_CAT_ID   = 29228
ELEMENT_SET_NO = 999
REV_AT_EPOCH   = 7288
BSTAR          = .25634E-3
MEAN_MOTION_DOT = .4317E-4
MEAN_MOTION_DDOT = 0

CCSDS_OMM_VERS = 2.0
CREATION_DATE  = 
ORIGINATOR     = 

OBJECT_NAME    = CZ-4B R/B
OBJECT_ID      = 2006-046C
CENTER_NAME    = EARTH
REF_FRAME      = TEME
TIME_SYSTEM    = UTC
MEAN_ELEMENT_THEORY = SGP/SGP4

EPOCH          = 2025-12-02T16:03:17.856288
MEAN_MOTION    = 15.15706983
ECCENTRICITY   = .0032757
INCLINATION    = 97.5752
RA_OF_ASC_NODE = 16.8353
ARG_OF_PERICENTER = 242.5228
MEAN_ANOMALY   = 117.2673

EPHEMERIS_TYPE = 0
CLASSIFICATION_TYPE = U
NORAD_CAT_ID   = 29507
ELEMENT_SET_NO = 999
REV_AT_EPOCH   = 4534
BSTAR          = .37126E-3
MEAN_MOTION_DOT = .7099E-4
MEAN_MOTION_DDOT = 0

CCSDS_OMM_VERS = 2.0
CREATION_DATE  = 
ORIGINATOR     = 

OBJECT_NAME    = CZ-2C R/B
OBJECT_ID      = 2007-010B
CENTER_NAME    = EARTH
REF_FRAME      = TEME
TIME_SYSTEM    = UTC
MEAN_ELEMENT_THEORY = SGP/SGP4

EPOCH          = 2025-12-02T20:31:39.400896
MEAN_MOTION    = 14.20202886
ECCENTRICITY   = .005845
INCLINATION    = 98.3973
RA_OF_ASC_NODE = 90.0037
ARG_OF_PERICENTER = 214.8933
MEAN_ANOMALY   = 144.8407

EPHEMERIS_TYPE = 0
CLASSIFICATION_TYPE = U
NORAD_CAT_ID   = 31114
ELEMENT_SET_NO = 999
REV_AT_EPOCH   = 96597
BSTAR          = .12256E-3
MEAN_MOTION_DOT = .225E-5
MEAN_MOTION_DDOT = 0

CCSDS_OMM_VERS = 2.0
CREATION_DATE  = 
ORIGINATOR     = 

OBJECT_NAME    = COSMO-SKYMED 1
OBJECT_ID      = 2007-023A
CENTER_NAME    = EARTH
REF_FRAME      = TEME
TIME_SYSTEM    = UTC
MEAN_ELEMENT_THEORY = SGP/SGP4

EPOCH          = 2025-12-02T19:41:04.117920
MEAN_MOTION    = 14.95649302
ECCENTRICITY   = .0001473
INCLINATION    = 97.8844
RA_OF_ASC_NODE = 162.1550
ARG_OF_PERICENTER = 82.4949
MEAN_ANOMALY   = 277.6439

EPHEMERIS_TYPE = 0
CLASSIFICATION_TYPE = U
NORAD_CAT_ID   = 31598
ELEMENT_SET_NO = 999
REV_AT_EPOCH   = 42
BSTAR          = .44788E-3
MEAN_MOTION_DOT = .4921E-4
MEAN_MOTION_DDOT = 0

CCSDS_OMM_VERS = 2.0
CREATION_DATE  = 
ORIGINATOR     = 

OBJECT_NAME    = COSMOS 2428
OBJECT_ID      = 2007-029A
CENTER_NAME    = EARTH
REF_FRAME      = TEME
TIME_SYSTEM    = UTC
MEAN_ELEMENT_THEORY = SGP/SGP4

EPOCH          = 2025-12-02T14:44:32.483040
MEAN_MOTION    = 14.12886807
ECCENTRICITY   = .0003103
INCLINATION    = 70.9373
RA_OF_ASC_NODE = 47.1389
ARG_OF_PERICENTER = 39.0924
MEAN_ANOMALY   = 321.0421

EPHEMERIS_TYPE = 0
CLASSIFICATION_TYPE = U
NORAD_CAT_ID   = 31792
ELEMENT_SET_NO = 999
REV_AT_EPOCH   = 95038
BSTAR          = .2483E-4
MEAN_MOTION_DOT = -.2E-7
MEAN_MOTION_DDOT = 0

CCSDS_OMM_VERS = 2.0
CREATION_DATE  = 
ORIGINATOR     = 

OBJECT_NAME    = SL-16 R/B
OBJECT_ID      = 2007-029B
CENTER_NAME    = EARTH
REF_FRAME      = TEME
TIME_SYSTEM    = UTC
MEAN_ELEMENT_THEORY = SGP/SGP4

EPOCH          = 2025-12-02T20:47:42.124128
MEAN_MOTION    = 14.14816356
ECCENTRICITY   = .0002439
INCLINATION    = 70.9769
RA_OF_ASC_NODE = 15.9126
ARG_OF_PERICENTER = 265.9330
MEAN_ANOMALY   = 266.8087

EPHEMERIS_TYPE = 0
CLASSIFICATION_TYPE = U
NORAD_CAT_ID   = 31793
ELEMENT_SET_NO = 999
REV_AT_EPOCH   = 95167
BSTAR          = -.6309E-4
MEAN_MOTION_DOT = -.17E-5
MEAN_MOTION_DDOT = 0

CCSDS_OMM_VERS = 2.0
CREATION_DATE  = 
ORIGINATOR     = 

OBJECT_NAME    = KORONAS-FOTON
OBJECT_ID      = 2009-003A
CENTER_NAME    = EARTH
REF_FRAME      = TEME
TIME_SYSTEM    = UTC
MEAN_ELEMENT_THEORY = SGP/SGP4

EPOCH          = 2025-12-02T13:25:59.729376
MEAN_MOTION    = 15.40845941
ECCENTRICITY   = .0012612
INCLINATION    = 82.4326
RA_OF_ASC_NODE = 16.6521
ARG_OF_PERICENTER = 141.1782
MEAN_ANOMALY   = 219.0372

EPHEMERIS_TYPE = 0
CLASSIFICATION_TYPE = U
NORAD_CAT_ID   = 33504
ELEMENT_SET_NO = 999
REV_AT_EPOCH   = 93077
BSTAR          = .34093E-3
MEAN_MOTION_DOT = .14064E-3
MEAN_MOTION_DDOT = 0

CCSDS_OMM_VERS = 2.0
CREATION_DATE  = 
ORIGINATOR     = 

OBJECT_NAME    = CZ-2C R/B
OBJECT_ID      = 2011-030B
CENTER_NAME    = EARTH
REF_FRAME      = TEME
TIME_SYSTEM    = UTC
MEAN_ELEMENT_THEORY = SGP/SGP4

EPOCH          = 2025-12-02T20:41:48.724800
MEAN_MOTION    = 14.80845712
ECCENTRICITY   = .0051782
INCLINATION    = 97.8394
RA_OF_ASC_NODE = 291.1888
ARG_OF_PERICENTER = 306.6349
MEAN_ANOMALY   = 106.7839

EPHEMERIS_TYPE = 0
CLASSIFICATION_TYPE = U
NORAD_CAT_ID   = 37731
ELEMENT_SET_NO = 999
REV_AT_EPOCH   = 77576
BSTAR          = .32513E-3
MEAN_MOTION_DOT = .2513E-4
MEAN_MOTION_DDOT = 0

CCSDS_OMM_VERS = 2.0
CREATION_DATE  = 
ORIGINATOR     = 

OBJECT_NAME    = H-2A R/B
OBJECT_ID      = 2012-025E
CENTER_NAME    = EARTH
REF_FRAME      = TEME
TIME_SYSTEM    = UTC
MEAN_ELEMENT_THEORY = SGP/SGP4

EPOCH          = 2025-12-02T20:44:03.896736
MEAN_MOTION    = 14.94338948
ECCENTRICITY   = .004394
INCLINATION    = 98.4577
RA_OF_ASC_NODE = 291.3341
ARG_OF_PERICENTER = 269.7562
MEAN_ANOMALY   = 89.8621

EPHEMERIS_TYPE = 0
CLASSIFICATION_TYPE = U
NORAD_CAT_ID   = 38341
ELEMENT_SET_NO = 999
REV_AT_EPOCH   = 73375
BSTAR          = .41761E-3
MEAN_MOTION_DOT = .4507E-4
MEAN_MOTION_DDOT = 0

